[{"OBJECT_NAME":"STARLINK-6101","OBJECT_ID":"2023-046Y","EPOCH":"2026-03-09T22:00:01.999584","MEAN_MOTION":15.17592192,"ECCENTRICITY":0.00011354,"INCLINATION":42.9997,"RA_OF_ASC_NODE":156.6579,"ARG_OF_PERICENTER":258.2594,"MEAN_ANOMALY":275.2462,"EPHEMERIS_TYPE":0,"CLASSIFICATION_TYPE":"U","NORAD_CAT_ID":56115,"ELEMENT_SET_NO":999,"REV_AT_EPOCH":577,"BSTAR":0.054602024,"MEAN_MOTION_DOT":0.0122169,"MEAN_MOTION_DDOT":0},{"OBJECT_NAME":"WT 1B","OBJECT_ID":"2019-032G","EPOCH":"2026-03-09T21:42:21.881088","MEAN_MOTION":15.25021485,"ECCENTRICITY":0.0008099,"INCLINATION":44.9738,"RA_OF_ASC_NODE":242.0209,"ARG_OF_PERICENTER":49.7728,"MEAN_ANOMALY":310.3861,"EPHEMERIS_TYPE":0,"CLASSIFICATION_TYPE":"U","NORAD_CAT_ID":44316,"ELEMENT_SET_NO":999,"REV_AT_EPOCH":37191,"BSTAR":0.00065022477,"MEAN_MOTION_DOT":0.00016297,"MEAN_MOTION_DDOT":0}]
